{"fetched_at":"2026-07-17T06:38:18.454Z","source":"https://celestrak.org/NORAD/elements/gp.php?NAME=HULIANWANG&FORMAT=JSON","constellation":"guowang","records":[{"OBJECT_NAME":"HULIANWANG DIGUI-28","OBJECT_ID":"2025-086J","EPOCH":"2026-07-16T20:36:34.462080","CLASSIFICATION_TYPE":"U","MEAN_MOTION":13.24411026,"ECCENTRICITY":0.0002113,"INCLINATION":86.5021,"RA_OF_ASC_NODE":302.9373,"ARG_OF_PERICENTER":111.3597,"MEAN_ANOMALY":248.7763,"EPHEMERIS_TYPE":0,"NORAD_CAT_ID":63695,"ELEMENT_SET_NO":999,"REV_AT_EPOCH":5878,"BSTAR":0.00011389,"MEAN_MOTION_DOT":6.4e-7,"MEAN_MOTION_DDOT":0},{"OBJECT_NAME":"HULIANWANG DIGUI-29","OBJECT_ID":"2025-086K","EPOCH":"2026-07-16T20:25:44.611392","CLASSIFICATION_TYPE":"U","MEAN_MOTION":13.24411383,"ECCENTRICITY":0.0001973,"INCLINATION":86.5049,"RA_OF_ASC_NODE":303.0559,"ARG_OF_PERICENTER":113.4846,"MEAN_ANOMALY":246.6495,"EPHEMERIS_TYPE":0,"NORAD_CAT_ID":63696,"ELEMENT_SET_NO":999,"REV_AT_EPOCH":5878,"BSTAR":0.00011515,"MEAN_MOTION_DOT":6.4e-7,"MEAN_MOTION_DDOT":0},{"OBJECT_NAME":"HULIANWANG DIGUI-30","OBJECT_ID":"2025-121A","EPOCH":"2026-07-16T20:36:27.510336","CLASSIFICATION_TYPE":"U","MEAN_MOTION":13.24409506,"ECCENTRICITY":0.0001952,"INCLINATION":86.4996,"RA_OF_ASC_NODE":3.5444,"ARG_OF_PERICENTER":89.097,"MEAN_ANOMALY":271.0388,"EPHEMERIS_TYPE":0,"NORAD_CAT_ID":64283,"ELEMENT_SET_NO":999,"REV_AT_EPOCH":5408,"BSTAR":0.000026745,"MEAN_MOTION_DOT":2.6e-7,"MEAN_MOTION_DDOT":0},{"OBJECT_NAME":"HULIANWANG DIGUI-31","OBJECT_ID":"2025-121B","EPOCH":"2026-07-16T20:25:38.731008","CLASSIFICATION_TYPE":"U","MEAN_MOTION":13.24414473,"ECCENTRICITY":0.0001944,"INCLINATION":86.5017,"RA_OF_ASC_NODE":3.6239,"ARG_OF_PERICENTER":89.5395,"MEAN_ANOMALY":270.5962,"EPHEMERIS_TYPE":0,"NORAD_CAT_ID":64284,"ELEMENT_SET_NO":999,"REV_AT_EPOCH":5408,"BSTAR":-0.000009749,"MEAN_MOTION_DOT":1e-7,"MEAN_MOTION_DDOT":0},{"OBJECT_NAME":"HULIANWANG DIGUI-32","OBJECT_ID":"2025-121C","EPOCH":"2026-07-16T20:14:34.007424","CLASSIFICATION_TYPE":"U","MEAN_MOTION":13.24410338,"ECCENTRICITY":0.0001909,"INCLINATION":86.4958,"RA_OF_ASC_NODE":3.3803,"ARG_OF_PERICENTER":93.7131,"MEAN_ANOMALY":266.4222,"EPHEMERIS_TYPE":0,"NORAD_CAT_ID":64285,"ELEMENT_SET_NO":999,"REV_AT_EPOCH":5408,"BSTAR":-0.000042443,"MEAN_MOTION_DOT":-4e-8,"MEAN_MOTION_DDOT":0},{"OBJECT_NAME":"HULIANWANG DIGUI-33","OBJECT_ID":"2025-121D","EPOCH":"2026-07-16T20:03:41.796288","CLASSIFICATION_TYPE":"U","MEAN_MOTION":13.24409966,"ECCENTRICITY":0.0001959,"INCLINATION":86.5016,"RA_OF_ASC_NODE":3.6125,"ARG_OF_PERICENTER":90.0905,"MEAN_ANOMALY":270.0454,"EPHEMERIS_TYPE":0,"NORAD_CAT_ID":64286,"ELEMENT_SET_NO":999,"REV_AT_EPOCH":5408,"BSTAR":-0.000063403,"MEAN_MOTION_DOT":-1.3e-7,"MEAN_MOTION_DDOT":0},{"OBJECT_NAME":"HULIANWANG DIGUI-34","OBJECT_ID":"2025-121E","EPOCH":"2026-07-16T19:52:52.240224","CLASSIFICATION_TYPE":"U","MEAN_MOTION":13.24410678,"ECCENTRICITY":0.0002137,"INCLINATION":86.4994,"RA_OF_ASC_NODE":3.5182,"ARG_OF_PERICENTER":82.203,"MEAN_ANOMALY":277.9346,"EPHEMERIS_TYPE":0,"NORAD_CAT_ID":64287,"ELEMENT_SET_NO":999,"REV_AT_EPOCH":5408,"BSTAR":-0.000052283,"MEAN_MOTION_DOT":-8e-8,"MEAN_MOTION_DDOT":0},{"OBJECT_NAME":"HULIANWANG DIGUI-35","OBJECT_ID":"2025-159A","EPOCH":"2026-07-16T20:47:30.568128","CLASSIFICATION_TYPE":"U","MEAN_MOTION":13.24413235,"ECCENTRICITY":0.000444,"INCLINATION":86.4939,"RA_OF_ASC_NODE":272.4039,"ARG_OF_PERICENTER":62.3485,"MEAN_ANOMALY":297.8099,"EPHEMERIS_TYPE":0,"NORAD_CAT_ID":64956,"ELEMENT_SET_NO":999,"REV_AT_EPOCH":4705,"BSTAR":0.000074868,"MEAN_MOTION_DOT":4.7e-7,"MEAN_MOTION_DDOT":0},{"OBJECT_NAME":"HULIANWANG DIGUI-36","OBJECT_ID":"2025-159B","EPOCH":"2026-07-16T20:41:52.956672","CLASSIFICATION_TYPE":"U","MEAN_MOTION":13.24408681,"ECCENTRICITY":0.0001651,"INCLINATION":86.4959,"RA_OF_ASC_NODE":272.4713,"ARG_OF_PERICENTER":102.5471,"MEAN_ANOMALY":257.5848,"EPHEMERIS_TYPE":0,"NORAD_CAT_ID":64957,"ELEMENT_SET_NO":999,"REV_AT_EPOCH":4705,"BSTAR":0.00010068,"MEAN_MOTION_DOT":5.8e-7,"MEAN_MOTION_DDOT":0},{"OBJECT_NAME":"HULIANWANG DIGUI-37","OBJECT_ID":"2025-159C","EPOCH":"2026-07-16T20:30:58.810176","CLASSIFICATION_TYPE":"U","MEAN_MOTION":13.244094,"ECCENTRICITY":0.0001781,"INCLINATION":86.49,"RA_OF_ASC_NODE":272.2603,"ARG_OF_PERICENTER":98.0235,"MEAN_ANOMALY":262.1101,"EPHEMERIS_TYPE":0,"NORAD_CAT_ID":64958,"ELEMENT_SET_NO":999,"REV_AT_EPOCH":4705,"BSTAR":0.0001254,"MEAN_MOTION_DOT":6.8e-7,"MEAN_MOTION_DDOT":0},{"OBJECT_NAME":"HULIANWANG DIGUI-38","OBJECT_ID":"2025-159D","EPOCH":"2026-07-16T20:20:09.172032","CLASSIFICATION_TYPE":"U","MEAN_MOTION":13.24409057,"ECCENTRICITY":0.000184,"INCLINATION":86.4959,"RA_OF_ASC_NODE":272.4641,"ARG_OF_PERICENTER":98.9309,"MEAN_ANOMALY":261.2034,"EPHEMERIS_TYPE":0,"NORAD_CAT_ID":64959,"ELEMENT_SET_NO":999,"REV_AT_EPOCH":4705,"BSTAR":0.00013422,"MEAN_MOTION_DOT":7.2e-7,"MEAN_MOTION_DDOT":0},{"OBJECT_NAME":"HULIANWANG DIGUI-39","OBJECT_ID":"2025-159E","EPOCH":"2026-07-16T20:09:15.340896","CLASSIFICATION_TYPE":"U","MEAN_MOTION":13.24408913,"ECCENTRICITY":0.0001809,"INCLINATION":86.4934,"RA_OF_ASC_NODE":272.3753,"ARG_OF_PERICENTER":102.0034,"MEAN_ANOMALY":258.1303,"EPHEMERIS_TYPE":0,"NORAD_CAT_ID":64960,"ELEMENT_SET_NO":999,"REV_AT_EPOCH":4705,"BSTAR":0.0001101,"MEAN_MOTION_DOT":6.2e-7,"MEAN_MOTION_DDOT":0},{"OBJECT_NAME":"HULIANWANG DIGUI-40","OBJECT_ID":"2025-162A","EPOCH":"2026-07-16T20:41:17.174112","CLASSIFICATION_TYPE":"U","MEAN_MOTION":13.29327396,"ECCENTRICITY":0.0000291,"INCLINATION":49.998,"RA_OF_ASC_NODE":159.5003,"ARG_OF_PERICENTER":323.1457,"MEAN_ANOMALY":36.9395,"EPHEMERIS_TYPE":0,"NORAD_CAT_ID":65043,"ELEMENT_SET_NO":999,"REV_AT_EPOCH":4729,"BSTAR":0.000033955,"MEAN_MOTION_DOT":-0.00000108,"MEAN_MOTION_DDOT":0},{"OBJECT_NAME":"HULIANWANG DIGUI-41","OBJECT_ID":"2025-162B","EPOCH":"2026-07-16T20:29:16.916064","CLASSIFICATION_TYPE":"U","MEAN_MOTION":13.29326996,"ECCENTRICITY":0.0000268,"INCLINATION":49.999,"RA_OF_ASC_NODE":159.4845,"ARG_OF_PERICENTER":333.8564,"MEAN_ANOMALY":26.2295,"EPHEMERIS_TYPE":0,"NORAD_CAT_ID":65044,"ELEMENT_SET_NO":999,"REV_AT_EPOCH":4730,"BSTAR":0.000022328,"MEAN_MOTION_DOT":-0.00000114,"MEAN_MOTION_DDOT":0},{"OBJECT_NAME":"HULIANWANG DIGUI-42","OBJECT_ID":"2025-162C","EPOCH":"2026-07-16T20:17:09.428064","CLASSIFICATION_TYPE":"U","MEAN_MOTION":13.29327642,"ECCENTRICITY":0.000028,"INCLINATION":49.9955,"RA_OF_ASC_NODE":159.344,"ARG_OF_PERICENTER":322.9704,"MEAN_ANOMALY":37.1148,"EPHEMERIS_TYPE":0,"NORAD_CAT_ID":65045,"ELEMENT_SET_NO":999,"REV_AT_EPOCH":4730,"BSTAR":0.0000025815,"MEAN_MOTION_DOT":-0.00000123,"MEAN_MOTION_DDOT":0},{"OBJECT_NAME":"HULIANWANG DIGUI-43","OBJECT_ID":"2025-162D","EPOCH":"2026-07-16T20:05:11.037120","CLASSIFICATION_TYPE":"U","MEAN_MOTION":13.29326239,"ECCENTRICITY":0.000032,"INCLINATION":49.9972,"RA_OF_ASC_NODE":159.3498,"ARG_OF_PERICENTER":318.647,"MEAN_ANOMALY":41.4378,"EPHEMERIS_TYPE":0,"NORAD_CAT_ID":65046,"ELEMENT_SET_NO":999,"REV_AT_EPOCH":4730,"BSTAR":0.000013975,"MEAN_MOTION_DOT":-0.00000118,"MEAN_MOTION_DDOT":0}]}
