HULIANWANG DIGUI-28     
1 63695U 25086J   26197.85873220  .00000064  00000+0  11389-3 0  9994
2 63695  86.5021 302.9373 0002113 111.3597 248.7763 13.24411026 58783
HULIANWANG DIGUI-29     
1 63696U 25086K   26197.85121078  .00000064  00000+0  11515-3 0  9993
2 63696  86.5049 303.0559 0001973 113.4846 246.6495 13.24411383 58780
HULIANWANG DIGUI-30     
1 64283U 25121A   26197.85865174  .00000026  00000+0  26745-4 0  9998
2 64283  86.4996   3.5444 0001952  89.0970 271.0388 13.24409506 54087
HULIANWANG DIGUI-31     
1 64284U 25121B   26197.85114272  .00000010  00000+0 -97490-5 0  9995
2 64284  86.5017   3.6239 0001944  89.5395 270.5962 13.24414473 54084
HULIANWANG DIGUI-32     
1 64285U 25121C   26197.84344916 -.00000004  00000+0 -42443-4 0  9996
2 64285  86.4958   3.3803 0001909  93.7131 266.4222 13.24410338 54087
HULIANWANG DIGUI-33     
1 64286U 25121D   26197.83590042 -.00000013  00000+0 -63403-4 0  9998
2 64286  86.5016   3.6125 0001959  90.0905 270.0454 13.24409966 54081
HULIANWANG DIGUI-34     
1 64287U 25121E   26197.82838241 -.00000008  00000+0 -52283-4 0  9992
2 64287  86.4994   3.5182 0002137  82.2030 277.9346 13.24410678 54087
HULIANWANG DIGUI-35     
1 64956U 25159A   26197.86632602  .00000047  00000+0  74868-4 0  9997
2 64956  86.4939 272.4039 0004440  62.3485 297.8099 13.24413235 47056
HULIANWANG DIGUI-36     
1 64957U 25159B   26197.86241848  .00000058  00000+0  10068-3 0  9999
2 64957  86.4959 272.4713 0001651 102.5471 257.5848 13.24408681 47055
HULIANWANG DIGUI-37     
1 64958U 25159C   26197.85484734  .00000068  00000+0  12540-3 0  9990
2 64958  86.4900 272.2603 0001781  98.0235 262.1101 13.24409400 47053
HULIANWANG DIGUI-38     
1 64959U 25159D   26197.84732838  .00000072  00000+0  13422-3 0  9996
2 64959  86.4959 272.4641 0001840  98.9309 261.2034 13.24409057 47052
HULIANWANG DIGUI-39     
1 64960U 25159E   26197.83976089  .00000062  00000+0  11010-3 0  9995
2 64960  86.4934 272.3753 0001809 102.0034 258.1303 13.24408913 47051
HULIANWANG DIGUI-40     
1 65043U 25162A   26197.86200433 -.00000108  00000+0  33955-4 0  9993
2 65043  49.9980 159.5003 0000291 323.1457  36.9395 13.29327396 47291
HULIANWANG DIGUI-41     
1 65044U 25162B   26197.85366801 -.00000114  00000+0  22328-4 0  9994
2 65044  49.9990 159.4845 0000268 333.8564  26.2295 13.29326996 47305
HULIANWANG DIGUI-42     
1 65045U 25162C   26197.84524801 -.00000123  00000+0  25815-5 0  9995
2 65045  49.9955 159.3440 0000280 322.9704  37.1148 13.29327642 47303
HULIANWANG DIGUI-43     
1 65046U 25162D   26197.83693330 -.00000118  00000+0  13975-4 0  9996
2 65046  49.9972 159.3498 0000320 318.6470  41.4378 13.29326239 47307
